GECAM-A                 
1 47234U 20094A   26058.13989985  .00002379  00000+0  17329-3 0  9993
2 47234  28.9961  20.3521 0010700 243.6219 116.3280 15.00334340285149
STARLINK-34674          
1 65526U 25200G   26068.75450600 -.00000916  00000+0 -59285-4 0  9992
2 65526  97.6024 139.9092 0000516 179.0799 181.0429 15.05647633 29153
