[{"OBJECT_NAME":"GECAM-A","OBJECT_ID":"2020-094A","EPOCH":"2026-02-27T03:21:27.347040","MEAN_MOTION":15.0033434,"ECCENTRICITY":0.00107,"INCLINATION":28.9961,"RA_OF_ASC_NODE":20.3521,"ARG_OF_PERICENTER":243.6219,"MEAN_ANOMALY":116.328,"EPHEMERIS_TYPE":0,"CLASSIFICATION_TYPE":"U","NORAD_CAT_ID":47234,"ELEMENT_SET_NO":999,"REV_AT_EPOCH":28514,"BSTAR":0.00017329,"MEAN_MOTION_DOT":2.379e-5,"MEAN_MOTION_DDOT":0},{"OBJECT_NAME":"STARLINK-34674","OBJECT_ID":"2025-200G","EPOCH":"2026-03-09T18:06:29.318400","MEAN_MOTION":15.05647633,"ECCENTRICITY":5.158e-5,"INCLINATION":97.6024,"RA_OF_ASC_NODE":139.9092,"ARG_OF_PERICENTER":179.0799,"MEAN_ANOMALY":181.0429,"EPHEMERIS_TYPE":0,"CLASSIFICATION_TYPE":"U","NORAD_CAT_ID":65526,"ELEMENT_SET_NO":999,"REV_AT_EPOCH":2915,"BSTAR":-5.9284965e-5,"MEAN_MOTION_DOT":-9.16e-6,"MEAN_MOTION_DDOT":0}]
